{
  "type": "FeatureCollection",
  "features": [
    {
      "type": "Feature",
      "properties": {
        "norad_id": 50032,
        "name": "COSMOS 1408 DEB",
        "group": "cosmos-1408-debris",
        "lat": -35.831150990128144,
        "lon": 50.14237379444163,
        "alt_km": 441.85257475487197,
        "timestamp": "2025-12-15T14:57:58.085379+00:00",
        "meta_object_name": "COSMOS 1408 DEB",
        "meta_object_id": "1982-092RU",
        "meta_epoch": "2025-12-14T22:01:55.785792",
        "meta_mean_motion": 15.45718692,
        "meta_eccentricity": 0.00154417,
        "meta_inclination": 82.5645,
        "meta_ra_of_asc_node": 56.2765,
        "meta_arg_of_pericenter": 200.2524,
        "meta_mean_anomaly": 159.8115,
        "meta_ephemeris_type": 0,
        "meta_classification_type": "U",
        "meta_norad_cat_id": 50032,
        "meta_element_set_no": 999,
        "meta_rev_at_epoch": 22637,
        "meta_bstar": 8.1338203e-05,
        "meta_mean_motion_dot": 3.987e-05,
        "meta_mean_motion_ddot": 0,
        "tle_line1": "1 50032U 82092RU  25348.91800678  .00003987  00000+0  81338-4 0  9995",
        "tle_line2": "2 50032  82.5645  56.2765 0015441 200.2524 159.8115 15.45718692226371"
      },
      "geometry": {
        "type": "Point",
        "coordinates": [
          50.14237379444163,
          -35.831150990128144
        ]
      }
    },
    {
      "type": "Feature",
      "properties": {
        "norad_id": 50058,
        "name": "COSMOS 1408 DEB",
        "group": "cosmos-1408-debris",
        "lat": -3.0712443675359564,
        "lon": 65.92435663157424,
        "alt_km": 379.17090329599705,
        "timestamp": "2025-12-15T14:57:58.085399+00:00",
        "meta_object_name": "COSMOS 1408 DEB",
        "meta_object_id": "1982-092SW",
        "meta_epoch": "2025-12-14T15:57:00.095616",
        "meta_mean_motion": 15.64237025,
        "meta_eccentricity": 0.00162597,
        "meta_inclination": 82.6133,
        "meta_ra_of_asc_node": 67.3271,
        "meta_arg_of_pericenter": 92.5268,
        "meta_mean_anomaly": 267.7853,
        "meta_ephemeris_type": 0,
        "meta_classification_type": "U",
        "meta_norad_cat_id": 50058,
        "meta_element_set_no": 999,
        "meta_rev_at_epoch": 22834,
        "meta_bstar": 0.00029284598,
        "meta_mean_motion_dot": 0.00028132,
        "meta_mean_motion_ddot": 0,
        "tle_line1": "1 50058U 82092SW  25348.66458444  .00028132  00000+0  29285-3 0  9996",
        "tle_line2": "2 50058  82.6133  67.3271 0016259  92.5268 267.7853 15.64237025228346"
      },
      "geometry": {
        "type": "Point",
        "coordinates": [
          65.92435663157424,
          -3.0712443675359564
        ]
      }
    },
    {
      "type": "Feature",
      "properties": {
        "norad_id": 50404,
        "name": "COSMOS 1408 DEB",
        "group": "cosmos-1408-debris",
        "lat": -50.13958541994141,
        "lon": -157.3644341079572,
        "alt_km": 588.2150604608223,
        "timestamp": "2025-12-15T14:57:58.085410+00:00",
        "meta_object_name": "COSMOS 1408 DEB",
        "meta_object_id": "1982-092ADS",
        "meta_epoch": "2025-12-14T21:44:59.536896",
        "meta_mean_motion": 15.14163346,
        "meta_eccentricity": 0.01709143,
        "meta_inclination": 82.2038,
        "meta_ra_of_asc_node": 212.815,
        "meta_arg_of_pericenter": 191.4475,
        "meta_mean_anomaly": 168.2852,
        "meta_ephemeris_type": 0,
        "meta_classification_type": "U",
        "meta_norad_cat_id": 50404,
        "meta_element_set_no": 999,
        "meta_rev_at_epoch": 21226,
        "meta_bstar": 0.0019184909,
        "meta_mean_motion_dot": 0.00050796,
        "meta_mean_motion_ddot": 0,
        "tle_line1": "1 50404U 82092ADS 25348.90624464  .00050796  00000+0  19185-2 0  9993",
        "tle_line2": "2 50404  82.2038 212.8150 0170914 191.4475 168.2852 15.14163346212269"
      },
      "geometry": {
        "type": "Point",
        "coordinates": [
          -157.3644341079572,
          -50.13958541994141
        ]
      }
    },
    {
      "type": "Feature",
      "properties": {
        "norad_id": 50621,
        "name": "COSMOS 1408 DEB",
        "group": "cosmos-1408-debris",
        "lat": -62.70145493148772,
        "lon": 56.53187676232045,
        "alt_km": 421.8119398843455,
        "timestamp": "2025-12-15T14:57:58.085421+00:00",
        "meta_object_name": "COSMOS 1408 DEB",
        "meta_object_id": "1982-092ALR",
        "meta_epoch": "2025-12-14T20:43:44.246784",
        "meta_mean_motion": 15.56785697,
        "meta_eccentricity": 0.00289612,
        "meta_inclination": 82.5704,
        "meta_ra_of_asc_node": 71.9692,
        "meta_arg_of_pericenter": 144.6263,
        "meta_mean_anomaly": 215.6921,
        "meta_ephemeris_type": 0,
        "meta_classification_type": "U",
        "meta_norad_cat_id": 50621,
        "meta_element_set_no": 999,
        "meta_rev_at_epoch": 22283,
        "meta_bstar": 0.0002813269,
        "meta_mean_motion_dot": 0.0002059,
        "meta_mean_motion_ddot": 0,
        "tle_line1": "1 50621U 82092ALR 25348.86370656  .00020590  00000+0  28133-3 0  9993",
        "tle_line2": "2 50621  82.5704  71.9692 0028961 144.6263 215.6921 15.56785697222830"
      },
      "geometry": {
        "type": "Point",
        "coordinates": [
          56.53187676232045,
          -62.70145493148772
        ]
      }
    }
  ]
}